NORAD_CAT_ID,OBJECT_NAME,OBJECT_TYPE,EPOCH,MEAN_MOTION,ECCENTRICITY,INCLINATION,RA_OF_ASC_NODE,ARG_OF_PERICENTER,MEAN_ANOMALY,BSTAR,MEAN_MOTION_DOT,MEAN_MOTION_DDOT,TLE_LINE0,TLE_LINE1,TLE_LINE2,SEMIMAJOR_AXIS,PERIOD,APOGEE,PERIGEE,DECAYED
55755.0,STARLINK-5619,PAYLOAD,2024-06-03 04:27:21,14.98330727,0.000293,70.0005,69.3155,268.4632,91.6192,5.7116e-05,5.89e-06,0.0,0 STARLINK-5619,1 55755U 23028Q   24155.18566106  .00000589  00000-0  57116-4 0  9998,2 55755  70.0005  69.3155 0002930 268.4632  91.6192 14.98330727 69507,6950.191,96.107,574.092,570.019,0.0
55755.0,STARLINK-5619,PAYLOAD,2024-06-03 17:16:25,14.98324263,0.0002924,70.0005,67.969,269.1631,90.9193,0.00020246,2.323e-05,0.0,0 STARLINK-5619,1 55755U 23028Q   24155.71974079  .00002323  00000-0  20246-3 0  9990,2 55755  70.0005  67.9690 0002924 269.1631  90.9193 14.98324263 69584,6950.211,96.107,574.108,570.043,0.0
55755.0,STARLINK-5619,PAYLOAD,2024-06-04 02:53:13,14.9833841,0.000288,70.0005,66.9591,269.554,90.5289,0.00014464,1.634e-05,0.0,0 STARLINK-5619,1 55755U 23028Q   24156.12029268  .00001634  00000-0  14464-3 0  9996,2 55755  70.0005  66.9591 0002880 269.5540  90.5289 14.98338410 69645,6950.167,96.106,574.034,570.03,0.0
55755.0,STARLINK-5619,PAYLOAD,2024-06-04 10:53:53,14.98338118,0.0002778,70.0009,66.1175,270.5974,89.4867,4.8896e-05,4.91e-06,0.0,0 STARLINK-5619,1 55755U 23028Q   24156.45409428  .00000491  00000-0  48896-4 0  9999,2 55755  70.0009  66.1175 0002778 270.5974  89.4867 14.98338118 69697,6950.168,96.106,573.964,570.102,0.0
55755.0,STARLINK-5619,PAYLOAD,2024-06-05 04:31:22,14.98367735,0.0002696,70.0017,64.2668,259.7389,100.3466,-0.00055052,-6.662e-05,0.0,0 STARLINK-5619,1 55755U 23028Q   24157.18845129 -.00006662  00000-0 -55052-3 0  9991,2 55755  70.0017  64.2668 0002696 259.7389 100.3466 14.98367735 69808,6950.076,96.105,573.815,570.067,0.0
55755.0,STARLINK-5619,PAYLOAD,2024-06-05 10:55:55,14.9832819,0.000258,70.002,63.5899,279.7475,80.3393,-1.4878e-05,-2.7e-06,0.0,0 STARLINK-5619,1 55755U 23028Q   24157.45550217 -.00000270  00000-0 -14878-4 0  9993,2 55755  70.0020  63.5899 0002580 279.7475  80.3393 14.98328190 69842,6950.198,96.107,573.857,570.27,0.0
55755.0,STARLINK-5619,PAYLOAD,2024-06-05 17:20:27,14.98327928,0.0002663,70.0016,62.9205,264.122,95.9635,-0.00010412,-1.335e-05,0.0,0 STARLINK-5619,1 55755U 23028Q   24157.72254355 -.00001335  00000-0 -10412-3 0  9999,2 55755  70.0016  62.9205 0002663 264.1220  95.9635 14.98327928 69882,6950.199,96.107,573.915,570.213,0.0
55755.0,STARLINK-5619,PAYLOAD,2024-06-06 02:57:16,14.98329715,0.0002632,70.0016,61.9104,264.6247,95.4612,-7.5329e-05,-9.92e-06,0.0,0 STARLINK-5619,1 55755U 23028Q   24158.12310188 -.00000992  00000-0 -75329-4 0  9998,2 55755  70.0016  61.9104 0002632 264.6247  95.4612 14.98329715 69942,6950.194,96.107,573.888,570.229,0.0
55755.0,STARLINK-5619,PAYLOAD,2024-06-07 17:24:29,14.98308392,0.0003277,69.9998,57.8674,267.0034,93.075,0.00036688,4.285e-05,0.0,0 STARLINK-5619,1 55755U 23028Q   24159.72534392  .00004285  00000-0  36688-3 0  9991,2 55755  69.9998  57.8674 0003277 267.0034  93.0750 14.98308392 70184,6950.26,96.108,574.402,569.847,0.0
55755.0,STARLINK-5619,PAYLOAD,2024-06-07 22:12:53,14.98330529,0.0002991,69.9997,57.3621,269.8924,90.1892,-7.4689e-07,-1.02e-06,0.0,0 STARLINK-5619,1 55755U 23028Q   24159.92561985 -.00000102  00000-0 -74689-6 0  9993,2 55755  69.9997  57.3621 0002991 269.8924  90.1892 14.98330529 70216,6950.191,96.107,574.135,569.977,0.0
55755.0,STARLINK-5619,PAYLOAD,2024-06-08 03:01:17,14.98332003,0.0002919,70.001,56.8585,269.2948,90.7877,0.00012943,1.452e-05,0.0,0 STARLINK-5619,1 55755U 23028Q   24160.12589657  .00001452  00000-0  12943-3 0  9992,2 55755  70.0010  56.8585 0002919 269.2948  90.7877 14.98332003 70249,6950.187,96.107,574.08,570.023,0.0
55755.0,STARLINK-5619,PAYLOAD,2024-06-08 11:01:58,14.98327764,0.00025,70.0029,56.0174,281.6605,78.4273,5.0578e-05,5.11e-06,0.0,0 STARLINK-5619,1 55755U 23028Q   24160.45970373  .00000511  00000-0  50578-4 0  9999,2 55755  70.0029  56.0174 0002500 281.6605  78.4273 14.98327764 70295,6950.2,96.107,573.802,570.327,0.0
55755.0,STARLINK-5619,PAYLOAD,2024-06-08 22:14:54,14.98332559,0.0002818,70.0012,54.8367,262.5481,97.5358,6.6756e-05,7.04e-06,0.0,0 STARLINK-5619,1 55755U 23028Q   24160.92701743  .00000704  00000-0  66756-4 0  9993,2 55755  70.0012  54.8367 0002818 262.5481  97.5358 14.98332559 70361,6950.185,96.107,574.009,570.091,0.0
55755.0,STARLINK-5619,PAYLOAD,2024-06-09 03:03:18,14.98336186,0.0002961,70.0001,54.3324,270.936,89.146,0.00011036,1.224e-05,0.0,0 STARLINK-5619,1 55755U 23028Q   24161.12729467  .00001224  00000-0  11036-3 0  9997,2 55755  70.0001  54.3324 0002961 270.9360  89.1460 14.98336186 70399,6950.174,96.107,574.097,569.981,0.0
55755.0,STARLINK-5619,PAYLOAD,2024-06-09 20:40:47,14.98331153,0.0002761,69.9999,52.4805,273.9259,86.1584,-1.5764e-05,-2.81e-06,0.0,0 STARLINK-5619,1 55755U 23028Q   24161.86166213 -.00000281  00000-0 -15764-4 0  9999,2 55755  69.9999  52.4805 0002761 273.9259  86.1584 14.98331153 70509,6950.189,96.107,573.973,570.135,0.0
55755.0,STARLINK-5619,PAYLOAD,2024-06-09 22:16:55,14.98329206,0.0002764,70.001,52.3145,271.9001,88.1842,3.5472e-05,3.3e-06,0.0,0 STARLINK-5619,1 55755U 23028Q   24161.92842181  .00000330  00000-0  35472-4 0  9992,2 55755  70.0010  52.3145 0002764 271.9001  88.1842 14.98329206 70514,6950.195,96.107,573.981,570.139,0.0
55755.0,STARLINK-5619,PAYLOAD,2024-06-10 09:29:51,14.98346301,0.0002447,70.0019,51.1355,270.6903,89.3975,-0.00021771,-2.691e-05,0.0,0 STARLINK-5619,1 55755U 23028Q   24162.39573631 -.00002691  00000-0 -21771-3 0  9995,2 55755  70.0019  51.1355 0002447 270.6903  89.3975 14.98346301 70580,6950.142,96.106,573.708,570.307,0.0
55755.0,STARLINK-5619,PAYLOAD,2024-06-10 20:42:48,14.98324854,0.0002726,70.0004,49.9563,268.2967,91.788,6.4356e-05,6.75e-06,0.0,0 STARLINK-5619,1 55755U 23028Q   24162.86306354  .00000675  00000-0  64356-4 0  9998,2 55755  70.0004  49.9563 0002726 268.2967  91.7880 14.98324854 70652,6950.209,96.107,573.968,570.179,0.0
55755.0,STARLINK-5619,PAYLOAD,2024-06-10 22:18:56,14.98328334,0.0002465,70.0014,49.7895,264.772,95.3158,2.0798e-05,1.55e-06,0.0,0 STARLINK-5619,1 55755U 23028Q   24162.92982228  .00000155  00000-0  20798-4 0  9990,2 55755  70.0014  49.7895 0002465 264.7720  95.3158 14.98328334 70663,6950.198,96.107,573.776,570.35,0.0
55755.0,STARLINK-5619,PAYLOAD,2024-06-11 03:07:20,14.98341367,0.0002695,70.0009,49.2839,265.726,94.3591,-1.8605e-05,-3.15e-06,0.0,0 STARLINK-5619,1 55755U 23028Q   24163.13009425 -.00000315  00000-0 -18605-4 0  9997,2 55755  70.0009  49.2839 0002695 265.7260  94.3591 14.98341367 70699,6950.158,96.106,573.896,570.15,0.0
55755.0,STARLINK-5619,PAYLOAD,2024-06-11 09:31:52,14.98358899,0.0002442,70.002,48.6113,276.0599,84.0282,-0.00047325,-5.739e-05,0.0,0 STARLINK-5619,1 55755U 23028Q   24163.39713198 -.00005739  00000-0 -47325-3 0  9999,2 55755  70.0020  48.6113 0002442 276.0599  84.0282 14.98358899 70736,6950.104,96.105,573.666,570.271,0.0
55755.0,STARLINK-5619,PAYLOAD,2024-06-12 01:33:13,14.98338232,0.0002654,70.0008,46.9295,255.8983,104.1881,-7.595e-06,-1.84e-06,0.0,0 STARLINK-5619,1 55755U 23028Q   24164.06473385 -.00000184  00000-0 -75950-5 0  9991,2 55755  70.0008  46.9295 0002654 255.8983 104.1881 14.98338232 70830,6950.167,96.106,573.877,570.188,0.0
55755.0,STARLINK-5619,PAYLOAD,2024-06-12 09:33:54,14.98311976,0.000278,70.0001,46.0856,275.6534,84.4308,0.00036471,4.259e-05,0.0,0 STARLINK-5619,1 55755U 23028Q   24164.39854347  .00004259  00000-0  36471-3 0  9996,2 55755  70.0001  46.0856 0002780 275.6534  84.4308 14.98311976 70884,6950.249,96.108,574.046,570.181,0.0
55755.0,STARLINK-5619,PAYLOAD,2024-06-12 20:46:50,14.98325576,0.0002679,70.0006,44.9074,272.9043,87.1809,-2.4583e-05,-3.86e-06,0.0,0 STARLINK-5619,1 55755U 23028Q   24164.86586232 -.00000386  00000-0 -24583-4 0  9994,2 55755  70.0006  44.9074 0002679 272.9043  87.1809 14.98325576 70955,6950.207,96.107,573.934,570.21,0.0
55755.0,STARLINK-5619,PAYLOAD,2024-06-12 22:22:58,14.98325446,0.0002658,70.001,44.7403,267.4326,92.6529,-3.6664e-05,-5.3e-06,0.0,0 STARLINK-5619,1 55755U 23028Q   24164.93262276 -.00000530  00000-0 -36664-4 0  9995,2 55755  70.0010  44.7403 0002658 267.4326  92.6529 14.98325446 70961,6950.207,96.107,573.919,570.225,0.0
55755.0,STARLINK-5619,PAYLOAD,2024-06-13 09:35:54,14.98330236,0.0002701,70.0012,43.5625,277.2121,82.8731,-3.2865e-05,-4.85e-06,0.0,0 STARLINK-5619,1 55755U 23028Q   24165.39994108 -.00000485  00000-0 -32865-4 0  9990,2 55755  70.0012  43.5625 0002701 277.2121  82.8731 14.98330236 71035,6950.192,96.107,573.934,570.18,0.0
55755.0,STARLINK-5619,PAYLOAD,2024-06-13 22:24:59,14.98330042,0.0002861,70.0009,42.2155,269.1772,90.9059,4.7974e-05,4.79e-06,0.0,0 STARLINK-5619,1 55755U 23028Q   24165.93401801  .00000479  00000-0  47974-4 0  9991,2 55755  70.0009  42.2155 0002861 269.1772  90.9059 14.98330042 71111,6950.193,96.107,574.046,570.069,0.0
55755.0,STARLINK-5619,PAYLOAD,2024-06-14 09:37:55,14.98332176,0.0002894,70.0006,41.0362,264.9256,95.1573,3.2329e-05,2.93e-06,0.0,0 STARLINK-5619,1 55755U 23028Q   24166.40133594  .00000293  00000-0  32329-4 0  9997,2 55755  70.0006  41.0362 0002894 264.9256  95.1573 14.98332176 71186,6950.186,96.107,574.063,570.04,0.0
55755.0,STARLINK-5619,PAYLOAD,2024-06-14 22:26:59,14.98332494,0.0003028,70.0003,39.6897,270.0464,90.0348,0.0001117,1.24e-05,0.0,0 STARLINK-5619,1 55755U 23028Q   24166.93541355  .00001240  00000-0  11170-3 0  9996,2 55755  70.0003  39.6897 0003028 270.0464  90.0348 14.98332494 71264,6950.185,96.107,574.155,569.946,0.0
55755.0,STARLINK-5619,PAYLOAD,2024-06-15 14:28:20,14.98331612,0.0002898,70.0007,38.0063,270.005,90.0777,9.6737e-06,2.2e-07,0.0,0 STARLINK-5619,1 55755U 23028Q   24167.60301614  .00000022  00000-0  96737-5 0  9994,2 55755  70.0007  38.0063 0002898 270.0050  90.0777 14.98331612 71369,6950.188,96.107,574.067,570.039,0.0
